[
  {
    "OBJECT_NAME": "STARLINK-34171",
    "OBJECT_ID": "25107U",
    "EPOCH": "2025-11-10T22:37:20.926848",
    "MEAN_MOTION": 15.27586126,
    "ECCENTRICITY": 0.0001033,
    "INCLINATION": 43.0,
    "RA_OF_ASC_NODE": 151.8203,
    "ARG_OF_PERICENTER": 246.0116,
    "MEAN_ANOMALY": 114.0628,
    "EPHEMERIS_TYPE": 0,
    "CLASSIFICATION_TYPE": "U",
    "NORAD_CAT_ID": 64082,
    "ELEMENT_SET_NO": 999,
    "REV_AT_EPOCH": 2796,
    "BSTAR": 3.518e-05,
    "MEAN_MOTION_DOT": 7.06e-06,
    "MEAN_MOTION_DDOT": 0.0,
    "TLE_LINE1": "1 64082U 25107U   25314.94260332  .00000706  00000+0  35180-4 0  9992",
    "TLE_LINE2": "2 64082  43.0000 151.8203 0001033 246.0116 114.0628 15.27586126 27965",
    "COMMENT": "Grouped by shell and plane from TLE"
  },
  {
    "OBJECT_NAME": "STARLINK-34126",
    "OBJECT_ID": "25107V",
    "EPOCH": "2025-11-11T05:56:53.795904",
    "MEAN_MOTION": 15.27586831,
    "ECCENTRICITY": 0.0001273,
    "INCLINATION": 42.9995,
    "RA_OF_ASC_NODE": 150.675,
    "ARG_OF_PERICENTER": 265.4663,
    "MEAN_ANOMALY": 94.6043,
    "EPHEMERIS_TYPE": 0,
    "CLASSIFICATION_TYPE": "U",
    "NORAD_CAT_ID": 64083,
    "ELEMENT_SET_NO": 999,
    "REV_AT_EPOCH": 2691,
    "BSTAR": 0.00012413000000000002,
    "MEAN_MOTION_DOT": 3.156e-05,
    "MEAN_MOTION_DDOT": 0.0,
    "TLE_LINE1": "1 64083U 25107V   25315.24784486  .00003156  00000+0  12413-3 0  9993",
    "TLE_LINE2": "2 64083  42.9995 150.6750 0001273 265.4663  94.6043 15.27586831 26910",
    "COMMENT": "Grouped by shell and plane from TLE"
  },
  {
    "OBJECT_NAME": "STARLINK-34157",
    "OBJECT_ID": "25107W",
    "EPOCH": "2025-11-10T19:42:00.273600",
    "MEAN_MOTION": 15.27602664,
    "ECCENTRICITY": 0.0001876,
    "INCLINATION": 43.0034,
    "RA_OF_ASC_NODE": 152.6248,
    "ARG_OF_PERICENTER": 281.8297,
    "MEAN_ANOMALY": 78.2345,
    "EPHEMERIS_TYPE": 0,
    "CLASSIFICATION_TYPE": "U",
    "NORAD_CAT_ID": 64084,
    "ELEMENT_SET_NO": 999,
    "REV_AT_EPOCH": 2792,
    "BSTAR": 0.0011649,
    "MEAN_MOTION_DOT": 0.00031954,
    "MEAN_MOTION_DDOT": 0.0,
    "TLE_LINE1": "1 64084U 25107W   25314.82083650  .00031954  00000+0  11649-2 0  9998",
    "TLE_LINE2": "2 64084  43.0034 152.6248 0001876 281.8297  78.2345 15.27602664 27923",
    "COMMENT": "Grouped by shell and plane from TLE"
  },
  {
    "OBJECT_NAME": "STARLINK-34140",
    "OBJECT_ID": "25107X",
    "EPOCH": "2025-11-10T23:19:54.750144",
    "MEAN_MOTION": 15.27614064,
    "ECCENTRICITY": 0.0001758,
    "INCLINATION": 42.9996,
    "RA_OF_ASC_NODE": 152.0408,
    "ARG_OF_PERICENTER": 282.1672,
    "MEAN_ANOMALY": 77.8982,
    "EPHEMERIS_TYPE": 0,
    "CLASSIFICATION_TYPE": "U",
    "NORAD_CAT_ID": 64085,
    "ELEMENT_SET_NO": 999,
    "REV_AT_EPOCH": 2794,
    "BSTAR": 0.0006770000000000001,
    "MEAN_MOTION_DOT": 0.00018434,
    "MEAN_MOTION_DDOT": 0.0,
    "TLE_LINE1": "1 64085U 25107X   25314.97216146  .00018434  00000+0  67700-3 0  9991",
    "TLE_LINE2": "2 64085  42.9996 152.0408 0001758 282.1672  77.8982 15.27614064 27942",
    "COMMENT": "Grouped by shell and plane from TLE"
  },
  {
    "OBJECT_NAME": "STARLINK-34132",
    "OBJECT_ID": "25107Y",
    "EPOCH": "2025-11-11T05:51:20.773152",
    "MEAN_MOTION": 15.2760675,
    "ECCENTRICITY": 8.56e-05,
    "INCLINATION": 42.9992,
    "RA_OF_ASC_NODE": 150.6419,
    "ARG_OF_PERICENTER": 300.2072,
    "MEAN_ANOMALY": 59.8695,
    "EPHEMERIS_TYPE": 0,
    "CLASSIFICATION_TYPE": "U",
    "NORAD_CAT_ID": 64086,
    "ELEMENT_SET_NO": 999,
    "REV_AT_EPOCH": 2797,
    "BSTAR": 0.0016185,
    "MEAN_MOTION_DOT": 0.00044582,
    "MEAN_MOTION_DDOT": 0.0,
    "TLE_LINE1": "1 64086U 25107Y   25315.24399043  .00044582  00000+0  16185-2 0  9994",
    "TLE_LINE2": "2 64086  42.9992 150.6419 0000856 300.2072  59.8695 15.27606750 27976",
    "COMMENT": "Grouped by shell and plane from TLE"
  },
  {
    "OBJECT_NAME": "STARLINK-34417",
    "OBJECT_ID": "25137Z",
    "EPOCH": "2025-11-10T23:36:27.772128",
    "MEAN_MOTION": 15.39649759,
    "ECCENTRICITY": 7.04e-05,
    "INCLINATION": 53.1585,
    "RA_OF_ASC_NODE": 158.3558,
    "ARG_OF_PERICENTER": 87.7829,
    "MEAN_ANOMALY": 272.3257,
    "EPHEMERIS_TYPE": 0,
    "CLASSIFICATION_TYPE": "U",
    "NORAD_CAT_ID": 64617,
    "ELEMENT_SET_NO": 999,
    "REV_AT_EPOCH": 2277,
    "BSTAR": 0.001578,
    "MEAN_MOTION_DOT": 0.00063305,
    "MEAN_MOTION_DDOT": 0.0,
    "TLE_LINE1": "1 64617U 25137Z   25314.98365477  .00063305  00000+0  15780-2 0  9995",
    "TLE_LINE2": "2 64617  53.1585 158.3558 0000704  87.7829 272.3257 15.39649759 22774",
    "COMMENT": "Grouped by shell and plane from TLE"
  }
]